HST                     
1 20580U 90037B   24090.44546124  .00007091  00000+0  34411-3 0  9991
2 20580  28.4673 152.2192 0002236 247.7123 112.3232 15.16546234665062
POLAR                   
1 23802U 96013A   24084.17999453  .00000234  00000+0  00000+0 0  9996
2 23802  79.0702 235.4589 5836940 236.6677  53.7359  1.29846894134258
SWAS                    
1 25560U 98071A   24090.52751582  .00003988  00000+0  33235-3 0  9999
2 25560  69.8973 138.2409 0004786  26.2065 333.9335 14.99434642375858
CXO                     
1 25867U 99040B   24091.17811311  .00001177  00000+0  00000+0 0  9993
2 25867  39.4890 161.6714 8952964 290.6875   0.1452  0.37811075 14277
XMM-NEWTON              
1 25989U 99066A   24087.08735119  .00000105  00000+0  00000+0 0  9992
2 25989  68.0958 294.0802 5229235  78.3991  75.7534  0.50136616 18942
TERRA                   
1 25994U 99068A   24090.61491598  .00000887  00000+0  19572-3 0  9998
2 25994  98.0554 156.3945 0001006 212.5602 276.2782 14.59633306291589
CLUSTER II-FM7 (SAMBA)  
1 26410U 00041A   24092.45309612  .00000058  00000+0  00000+0 0  9996
2 26410 138.4851 356.7154 7284735 211.6132   0.5897  0.44230547 16700
CLUSTER II-FM6 (SALSA)  
1 26411U 00041B   24090.15170249  .00001663  00000+0  00000+0 0  9997
2 26411 146.7485  17.3137 8859061 232.0356   0.5807  0.44246755 27760
CLUSTER II-FM5 (RUMBA)  
1 26463U 00045A   24090.18432541  .00001284  00000+0  00000+0 0  9996
2 26463 148.9682  13.7517 8377922 228.9902   0.9734  0.44226745 16627
CLUSTER II-FM8 (TANGO)  
1 26464U 00045B   24092.45276805  .00000058  00000+0  00000+0 0  9996
2 26464 138.4965 356.7254 7284255 211.6096   0.6315  0.44222215 16712
ODIN                    
1 26702U 01007A   24090.54053165  .00010510  00000+0  48878-3 0  9993
2 26702  97.4895 106.1670 0007966 182.3882 177.7317 15.20119206264947
TIMED                   
1 26998U 01055B   24090.62116461  .00002730  00000+0  27992-3 0  9990
2 26998  74.0718  58.3595 0001187 228.9549 131.1530 14.90980892210113
INTEGRAL                
1 27540U 02048A   24090.34637764  .00000338  00000+0  00000+0 0  9999
2 27540  88.3833  24.5487 8672775 284.1645 165.7463  0.37569254 23597
CORIOLIS                
1 27640U 03001A   24090.56095775  .00000295  00000+0  16081-3 0  9996
2 27640  98.7164  99.0329 0014591  25.8699 334.3204 14.19425299 99482
SORCE                   
1 27651U 03004A   24090.59108597  .00004492  00000+0  42200-3 0  9996
2 27651  39.9924 165.5671 0019478  38.1929 322.0238 14.94349016150480
MOST                    
1 27843U 03031D   24090.54316586  .00000204  00000+0  11442-3 0  9994
2 27843  98.7093  98.6425 0011008  69.4274 290.8083 14.20922783 75851
SCISAT 1                
1 27858U 03036A   24090.40702223  .00001595  00000+0  22076-3 0  9996
2 27858  73.9335 335.6634 0008808 227.8268 132.2160 14.78954248111764
SWIFT                   
1 28485U 04047A   24090.50691816  .00013916  00000+0  66104-3 0  9992
2 28485  20.5571  23.5482 0008616 341.8716  18.1412 15.16800609 62207
CLOUDSAT                
1 29107U 06016A   24090.54144758  .00003023  00000+0  38783-3 0  9994
2 29107  98.4043  72.1910 0007080  67.0475 293.1483 14.82037556954518
CALIPSO                 
1 29108U 06016B   24090.57195476  .00002424  00000+0  45796-3 0  9997
2 29108  98.4139  70.5381 0001309  84.2688 275.8664 14.65377048954437
HINODE (SOLAR-B)        
1 29479U 06041A   24090.59782968  .00001454  00000+0  27264-3 0  9998
2 29479  98.0952 107.0240 0017274 333.5612  26.4709 14.66171838936263
SJ-6C                   
1 29505U 06046A   24090.57730589  .00005993  00000+0  46003-3 0  9997
2 29505  97.7281 117.9038 0005349  44.5908 315.5746 15.02139266950221
SJ-6D                   
1 29506U 06046B   24090.58077487  .00002041  00000+0  18309-3 0  9999
2 29506  97.7475 116.2278 0001811 160.7272 199.4019 14.96852704949568
FGRST (GLAST)           
1 33053U 08029A   24090.20842779  .00005372  00000+0  25551-3 0  9994
2 33053  25.5835  31.4260 0010366 189.7711 170.2625 15.16070513872571
WISE                    
1 36119U 09071A   24090.56765585  .00037932  00000+0  53705-3 0  9995
2 36119  97.1592 126.5431 0003180  89.1757 270.9863 15.56401526795984
SDO                     
1 36395U 10005A   24090.04138149 -.00000049  00000+0  00000+0 0  9999
2 36395  32.9612  98.8213 0001899 229.4484 132.7935  1.00274864 51954
CRYOSAT 2               
1 36508U 10013A   24090.58089399  .00000505  00000+0  12470-3 0  9999
2 36508  92.0272  81.9523 0003494 146.0155 214.1277 14.51900765740751
X-SAT                   
1 37389U 11015C   24090.53891405  .00000268  00000+0  13275-3 0  9994
2 37389  98.2962  98.8488 0013833 193.2166 166.8654 14.24653216672510
GCOM-W1 (SHIZUKU)       
1 38337U 12025A   24090.60809841  .00001383  00000+0  31659-3 0  9996
2 38337  98.2061  31.8334 0001480  77.7959  97.8300 14.57166842631282
NUSTAR                  
1 38358U 12031A   24090.58335648  .00005547  00000+0  42440-3 0  9998
2 38358   6.0263 281.0782 0009562  64.4227  28.3896 14.95160195  1302
NEOSSAT                 
1 39089U 13009D   24090.46977258  .00000502  00000+0  19079-3 0  9990
2 39089  98.4059 279.9003 0012021 133.1097 227.1097 14.35098102580718
BRITE-AUSTRIA           
1 39091U 13009F   24090.50435915  .00000543  00000+0  20252-3 0  9997
2 39091  98.3871 280.2194 0011243 130.6309 229.5857 14.35727479580975
IRIS                    
1 39197U 13033A   24090.49876231  .00002740  00000+0  35294-3 0  9992
2 39197  97.9667 281.5592 0027475  77.5268 282.9017 14.81640301580434
HISAKI (SPRINT-A)       
1 39253U 13049A   24090.49768111  .00000180  00000+0  15439-3 0  9994
2 39253  29.7221  10.9590 0136900 301.2909  57.4322 13.55378688521627
CASSIOPE                
1 39265U 13055A   24090.60046125  .00034815  00000+0  75092-3 0  9994
2 39265  80.9526 283.0481 0514746 150.6252 212.4972 14.65846719546868
STSAT-3                 
1 39422U 13066G   24090.55622654  .00004102  00000+0  38700-3 0  9993
2 39422  97.5157  73.3501 0019274 262.6183  97.2847 14.94156808563070
SWARM B                 
1 39451U 13067A   24090.62549351  .00005107  00000+0  23917-3 0  9996
2 39451  87.7520 225.9381 0002426  88.9961 271.1561 15.19506130560069
SWARM A                 
1 39452U 13067B   24090.55142063  .00007872  00000+0  26086-3 0  9999
2 39452  87.3488 351.3680 0003477  76.9483 283.2155 15.31114671581726
SWARM C                 
1 39453U 13067C   24090.55135636  .00007716  00000+0  25568-3 0  9999
2 39453  87.3485 349.9638 0003448  76.7951 283.3684 15.31114269581682
BRITE-CA1 (TORONTO)     
1 40020U 14033L   24090.63389137  .00001625  00000+0  27107-3 0  9995
2 40020  97.8637 230.5987 0083191 343.7653  16.0890 14.69054362523335
OCO 2                   
1 40059U 14035A   24090.57151025  .00001214  00000+0  27952-3 0  9997
2 40059  98.1961  32.5712 0001155  71.1868 288.9456 14.57098783518296
BRITE-PL2 (HEWELIUSZ)   
1 40119U 14049B   24090.23499896  .00004067  00000+0  44544-3 0  9998
2 40119  97.8773 190.3208 0014800 263.3660  96.5872 14.88260920520835
RESURS P2               
1 40360U 14087A   24090.58532124  .00027689  00000+0  42171-3 0  9997
2 40360  97.1526 176.9318 0006312 219.2834 140.7964 15.54449778517302
MMS 1                   
1 40482U 15011A   24090.58335648 -.00001509  00000+0  00000+0 0  9997
2 40482  42.8212  18.1062 9130402 140.8071  15.5316  0.28401672  1357
MMS 2                   
1 40483U 15011B   24090.58335648 -.00001509  00000+0  00000+0 0  9998
2 40483  42.8242  18.1124 9129886 140.7966  15.5413  0.28401645  1354
MMS 3                   
1 40484U 15011C   24090.58335648 -.00001509  00000+0  00000+0 0  9999
2 40484  42.8173  18.1144 9129291 140.7991  15.5365  0.28401663  1354
MMS 4                   
1 40485U 15011D   24090.58335648 -.00001509  00000+0  00000+0 0  9990
2 40485  42.8172  18.1082 9129913 140.7987  15.5555  0.28401676  1301
ASTROSAT                
1 40930U 15052A   24090.15010781  .00003132  00000+0  33088-3 0  9990
2 40930   5.9963 204.5938 0008194  26.7896 333.2654 14.78622488459690
DAMPE                   
1 41173U 15078A   24090.55896837  .00002621  00000+0  10218-3 0  9998
2 41173  97.4289  84.4481 0014638  64.0194 296.2551 15.26760676460985
PISAT                   
1 41784U 16059B   24090.58032799  .00001694  00000+0  31859-3 0  9991
2 41784  97.8423 116.1715 0029311 262.7673  97.0198 14.65590586401143
HXMT (HUIYAN)           
1 42758U 17034A   24090.60395648  .00010267  00000+0  52810-3 0  9991
2 42758  43.0161 349.5511 0001039 272.5751  87.4978 15.16526863374924
FLYING LAPTOP           
1 42831U 17042G   24090.59822795  .00003678  00000+0  34413-3 0  9995
2 42831  97.3854 276.1307 0012423 347.9662  12.1261 14.94612270365396
ZHANGZHENG-1 (CSES)     
1 43194U 18015C   24090.65111784  .00017642  00000+0  78544-3 0  9994
2 43194  97.5980 233.6551 0014279  52.2519 308.0008 15.21432784341759
SALSAT                  
1 46495U 20068K   24090.60992879  .00008100  00000+0  47864-3 0  9999
2 46495  97.8098  48.0540 0013004 215.0346 145.0029 15.11696629192437
IXPE                    
1 49954U 21121A   24090.58335648  .00009763  00000+0  75403-3 0  9991
2 49954   0.2293 256.7336 0009261 191.3468  41.1421 14.97084339  5748
